*******************************************************************************
 Revised: July 31, 2013                  Sun                                 10

 PHYSICAL PROPERTIES (updated 2018-Aug-15):
  GM, km^3/s^2          = 132712440041.93938  Mass, 10^24 kg        = ~1988500
  Vol. mean radius, km  = 695700              Volume, 10^12 km^3    = 1412000
  Solar radius (IAU)    = 696000 km           Mean density, g/cm^3  = 1.408
  Radius (photosphere)  = 696500 km           Angular diam at 1 AU  = 1919.3"
  Photosphere temp., K  = 6600 (bottom)       Photosphere temp., K  = 4400(top)
  Photospheric depth    = ~500 km             Chromospheric depth   = ~2500 km
  Flatness, f           = 0.00005             Adopted sid. rot. per.= 25.38 d
  Surface gravity       =  274.0 m/s^2        Escape speed, km/s    =  617.7
  Pole (RA,DEC), deg.   = (286.13, 63.87)     Obliquity to ecliptic = 7.25 deg.
  Solar constant (1 AU) = 1367.6 W/m^2        Luminosity, 10^24 J/s = 382.8
  Mass-energy conv rate = 4.260 x 10^9 kg/s   Effective temp, K     = 5772
  Sunspot cycle         = 11.4 yr             Cycle 24 sunspot min. = 2008 A.D.

  Motion relative to nearby stars = apex : R.A.= 271 deg.; DEC.= +30 deg.
                                    speed: 19.4 km/s (0.0112 au/day)
  Motion relative to 2.73K BB/CBR = apex : l= 264.7 +- 0.8; b= 48.2 +- 0.5 deg.
                                    speed: 369 +-11 km/s
*******************************************************************************


*******************************************************************************
Ephemeris / WWW_USER Tue Sep 26 09:16:29 2023 Pasadena, USA      / Horizons
*******************************************************************************
Target body name: Sun (10)                        {source: DE441}
Center body name: Solar System Barycenter (0)     {source: DE441}
Center-site name: BODY CENTER
*******************************************************************************
Start time      : A.D. 2023-Jan-01 00:00:00.0000 TDB
Stop  time      : A.D. 2024-Jan-01 00:00:00.0000 TDB
Step-size       : 1440 minutes
*******************************************************************************
Center geodetic : 0.0, 0.0, 0.0                   {E-lon(deg),Lat(deg),Alt(km)}
Center cylindric: 0.0, 0.0, 0.0                   {E-lon(deg),Dxy(km),Dz(km)}
Center radii    : (undefined)
Output units    : AU-D
Calendar mode   : Mixed Julian/Gregorian
Output type     : GEOMETRIC cartesian states
Output format   : 3 (position, velocity, LT, range, range-rate)
Reference frame : Ecliptic of J2000.0
*******************************************************************************
JDTDB
   X     Y     Z
   VX    VY    VZ
   LT    RG    RR
*******************************************************************************
$$SOE
2460185.500000000 = A.D. 2023-Aug-29 00:00:00.0000 TDB 
 X =-8.504894661819615E-03 Y =-1.955376054526539E-03 Z = 2.144141642840859E-04
 VX= 3.590589249298324E-06 VY=-8.083479874511190E-06 VZ=-1.504243555800307E-08
 LT= 5.041690161998971E-05 RG= 8.729415911566431E-03 RR=-1.687921141093024E-06
2460186.500000000 = A.D. 2023-Aug-30 00:00:00.0000 TDB 
 X =-8.501297779803484E-03 Y =-1.963456964304900E-03 Z = 2.143989327693232E-04
 VX= 3.603178491122958E-06 VY=-8.078327756069358E-06 VZ=-1.542073819003935E-08
 LT= 5.040713917636930E-05 RG= 8.727725596851777E-03 RR=-1.692714836195906E-06
2460187.500000000 = A.D. 2023-Aug-31 00:00:00.0000 TDB 
 X =-8.497688297547060E-03 Y =-1.971532685926400E-03 Z = 2.143833225384273E-04
 VX= 3.615789602638154E-06 VY=-8.073103296904756E-06 VZ=-1.579984817281113E-08
 LT= 5.039734893339798E-05 RG= 8.726030468828711E-03 RR=-1.697547727215062E-06
2460188.500000000 = A.D. 2023-Sep-01 00:00:00.0000 TDB 
 X =-8.494066193569457E-03 Y =-1.979603146238477E-03 Z = 2.143673328455692E-04
 VX= 3.628421798547162E-06 VY=-8.067804852658933E-06 VZ=-1.617963979837966E-08
 LT= 5.038753066523654E-05 RG= 8.724330488394402E-03 RR=-1.702419626523301E-06
2460189.500000000 = A.D. 2023-Sep-02 00:00:00.0000 TDB 
 X =-8.490431447201473E-03 Y =-1.987668270379707E-03 Z = 2.143509630791333E-04
 VX= 3.641074237298566E-06 VY=-8.062430647514043E-06 VZ=-1.655996982068480E-08
 LT= 5.037768414716975E-05 RG= 8.722625616640606E-03 RR=-1.707330329851931E-06
2460190.500000000 = A.D. 2023-Sep-03 00:00:00.0000 TDB 
 X =-8.486784038653127E-03 Y =-1.995727981641084E-03 Z = 2.143342127809074E-04
 VX= 3.653745997651822E-06 VY=-8.056978759794950E-06 VZ=-1.694067408229648E-08
 LT= 5.036780915575393E-05 RG= 8.720915814879255E-03 RR=-1.712279597553221E-06
2460191.500000000 = A.D. 2023-Sep-04 00:00:00.0000 TDB 
 X =-8.483123949107382E-03 Y =-2.003782201313412E-03 Z = 2.143170816688561E-04
 VX= 3.666436049588936E-06 VY=-8.051447108740114E-06 VZ=-1.732156371901001E-08
 LT= 5.035790546908887E-05 RG= 8.719201044689514E-03 RR=-1.717267130218830E-06
2460192.500000000 = A.D. 2023-Sep-05 00:00:00.0000 TDB 
 X =-8.479451160846163E-03 Y =-2.011830848522494E-03 Z = 2.142995696638998E-04
 VX= 3.679143218656232E-06 VY=-8.045833443541151E-06 VZ=-1.770242094866817E-08
 LT= 5.034797286724933E-05 RG= 8.717481267992506E-03 RR=-1.722292537510967E-06
2460193.500000000 = A.D. 2023-Sep-06 00:00:00.0000 TDB 
 X =-8.475765657416043E-03 Y =-2.019873840055521E-03 Z = 2.142816769210920E-04
 VX= 3.691866143090133E-06 VY=-8.040135336558898E-06 VZ=-1.808299454100242E-08
 LT= 5.033801113292165E-05 RG= 8.715756447161540E-03 RR=-1.727355299132537E-06
2460194.500000000 = A.D. 2023-Sep-07 00:00:00.0000 TDB 
 X =-8.472067423838247E-03 Y =-2.027911090181672E-03 Z = 2.142634038653850E-04
 VX= 3.704603223502956E-06 VY=-8.034350181681119E-06 VZ=-1.846299502491686E-08
 LT= 5.032802005227503E-05 RG= 8.714026545172964E-03 RR=-1.732454717477707E-06
2460195.500000000 = A.D. 2023-Sep-08 00:00:00.0000 TDB 
 X =-8.468356446878869E-03 Y =-2.035942510479765E-03 Z = 2.142447512323777E-04
 VX= 3.717352562362224E-06 VY=-8.028475204341600E-06 VZ=-1.884208991446325E-08
 LT= 5.031799941617312E-05 RG= 8.712291525815936E-03 RR=-1.737589857726748E-06
2460196.500000000 = A.D. 2023-Sep-09 00:00:00.0000 TDB 
 X =-8.464632715375254E-03 Y =-2.043968009675253E-03 Z = 2.142257201134963E-04
 VX= 3.730111901449262E-06 VY=-8.022507477836967E-06 VZ=-1.921989926487219E-08
 LT= 5.030794902170625E-05 RG= 8.710551353957739E-03 RR=-1.742759484541917E-06
2460197.500000000 = A.D. 2023-Sep-10 00:00:00.0000 TDB 
 X =-8.460896220635403E-03 Y =-2.051987493506281E-03 Z = 2.142063120055386E-04
 VX= 3.742878545157929E-06 VY=-8.016443961813632E-06 VZ=-1.959599174187973E-08
 LT= 5.029786867416525E-05 RG= 8.708805995885523E-03 RR=-1.747961979782488E-06
2460198.500000000 = A.D. 2023-Sep-11 00:00:00.0000 TDB 
 X =-8.457146956912883E-03 Y =-2.060000864635895E-03 Z = 2.141865288634113E-04
 VX= 3.755649285451090E-06 VY=-8.010281557397585E-06 VZ=-1.996988220398564E-08
 LT= 5.028775818949458E-05 RG= 8.707055419731061E-03 RR=-1.753195257793745E-06
2460199.500000000 = A.D. 2023-Sep-12 00:00:00.0000 TDB 
 X =-8.453384921956590E-03 Y =-2.068008022630686E-03 Z = 2.141663731543439E-04
 VX= 3.768420327577765E-06 VY=-8.004017185935936E-06 VZ=-2.034103128480534E-08
 LT= 5.027761739724963E-05 RG= 8.705299595982784E-03 RR=-1.758456675622258E-06
2460200.500000000 = A.D. 2023-Sep-13 00:00:00.0000 TDB 
 X =-8.449610117632497E-03 Y =-2.076008864032096E-03 Z = 2.141458479111720E-04
 VX= 3.781187221682624E-06 VY=-7.997647896177863E-06 VZ=-2.070884784070913E-08
 LT= 5.026744614407981E-05 RG= 8.703538498088859E-03 RR=-1.763742941824202E-06
2460201.500000000 = A.D. 2023-Sep-14 00:00:00.0000 TDB 
 X =-8.445822550607026E-03 Y =-2.084003282550134E-03 Z = 2.141249567813064E-04
 VX= 3.793944809766677E-06 VY=-7.991171002004429E-06 VZ=-2.107269530375923E-08
 LT= 5.025724429772288E-05 RG= 8.701772103148790E-03 RR=-1.769050032336519E-06
2460202.500000000 = A.D. 2023-Sep-15 00:00:00.0000 TDB 
 X =-8.442022233070829E-03 Y =-2.091991169409760E-03 Z = 2.141037040669704E-04
 VX= 3.806687200084013E-06 VY=-7.984584249521433E-06 VZ=-2.143190295162712E-08
 LT= 5.024701175143692E-05 RG= 8.700000392680785E-03 RR=-1.774373125183127E-06
2460203.500000000 = A.D. 2023-Sep-16 00:00:00.0000 TDB 
 X =-8.438209183469011E-03 Y =-2.099972413877098E-03 Z = 2.140820947513683E-04
 VX= 3.819407781984064E-06 VY=-7.977886008457504E-06 VZ=-2.178578287454281E-08
 LT= 5.023674842872266E-05 RG= 8.698223353439408E-03 RR=-1.779706567599986E-06
2460204.500000000 = A.D. 2023-Sep-17 00:00:00.0000 TDB 
 X =-8.434383427191126E-03 Y =-2.107946903985457E-03 Z = 2.140601345048702E-04
 VX= 3.832099293432116E-06 VY=-7.971075478360551E-06 VZ=-2.213365298450568E-08
 LT= 5.022645428810842E-05 RG= 8.696440978244057E-03 RR=-1.785043889494612E-06
2460205.500000000 = A.D. 2023-Sep-18 00:00:00.0000 TDB 
 X =-8.430544997163100E-03 Y =-2.115914527469104E-03 Z = 2.140378296652578E-04
 VX= 3.844753950962770E-06 VY=-7.964152895059849E-06 VZ=-2.247486577397624E-08
 LT= 5.021612932769216E-05 RG= 8.694653266765408E-03 RR=-1.790377876017753E-06
2460206.500000000 = A.D. 2023-Sep-19 00:00:00.0000 TDB 
 X =-8.426693934275429E-03 Y =-2.123875172895493E-03 Z = 2.140151871867675E-04
 VX= 3.857363647641637E-06 VY=-7.957119717257998E-06 VZ=-2.280884169003360E-08
 LT= 5.020577358906849E-05 RG= 8.692860226205341E-03 RR=-1.795700709428379E-06
2460207.500000000 = A.D. 2023-Sep-20 00:00:00.0000 TDB 
 X =-8.422830287579262E-03 Y =-2.131828730963463E-03 Z = 2.139922145543119E-04
 VX= 3.869920218729878E-06 VY=-7.949978766937515E-06 VZ=-2.313510494544692E-08
 LT= 5.019538716022006E-05 RG= 8.691061871797584E-03 RR=-1.801004186388361E-06
2460208.500000000 = A.D. 2023-Sep-21 00:00:00.0000 TDB 
 X =-8.418954114185893E-03 Y =-2.139775095905268E-03 Z = 2.139689196620408E-04
 VX= 3.882415767164072E-06 VY=-7.942734290509806E-06 VZ=-2.345331834053210E-08
 LT= 5.018497017693334E-05 RG= 8.689258227052831E-03 RR=-1.806280011341277E-06
